NORAD_CAT_ID,OBJECT_NAME,OBJECT_TYPE,EPOCH,MEAN_MOTION,ECCENTRICITY,INCLINATION,RA_OF_ASC_NODE,ARG_OF_PERICENTER,MEAN_ANOMALY,BSTAR,MEAN_MOTION_DOT,MEAN_MOTION_DDOT,TLE_LINE0,TLE_LINE1,TLE_LINE2,SEMIMAJOR_AXIS,PERIOD,APOGEE,PERIGEE,DECAYED
51141.0,STARLINK-3179,PAYLOAD,2024-04-24 10:36:17,15.08841975,0.0001908,53.2161,130.8309,83.4088,276.7122,0.00035348,5.342e-05,0.0,0 STARLINK-3179,1 51141U 22005AP  24115.44187125  .00005342  00000-0  35348-3 0  9996,2 51141  53.2161 130.8309 0001908  83.4088 276.7122 15.08841975126559,6917.874,95.437,541.059,538.419,0.0
51141.0,STARLINK-3179,PAYLOAD,2024-04-25 10:27:06,15.08837294,0.0001561,53.216,126.3688,90.7916,269.3255,0.00030527,4.573e-05,0.0,0 STARLINK-3179,1 51141U 22005AP  24116.43548704  .00004573  00000-0  30527-3 0  9999,2 51141  53.2160 126.3688 0001561  90.7916 269.3255 15.08837294126705,6917.889,95.438,540.834,538.674,0.0
51141.0,STARLINK-3179,PAYLOAD,2024-04-26 03:56:19,15.08861002,0.0001628,53.215,123.0932,122.2118,237.9032,0.00092897,0.00014536,0.0,0 STARLINK-3179,1 51141U 22005AP  24117.16411930  .00014536  00000-0  92897-3 0  9998,2 51141  53.2150 123.0932 0001628 122.2118 237.9032 15.08861002126819,6917.816,95.436,540.807,538.555,0.0
51141.0,STARLINK-3179,PAYLOAD,2024-04-26 07:07:06,15.08880757,0.0001424,53.2151,122.4993,90.8954,269.2201,0.0016141,0.00025523,0.0,0 STARLINK-3179,1 51141U 22005AP  24117.29659919  .00025523  00000-0  16141-2 0  9998,2 51141  53.2151 122.4993 0001424  90.8954 269.2201 15.08880757126838,6917.756,95.435,540.606,538.636,0.0
51141.0,STARLINK-3179,PAYLOAD,2024-04-27 03:47:06,15.08868845,0.000108,53.215,118.6363,84.9379,275.1736,0.0011654,0.00018323,0.0,0 STARLINK-3179,1 51141U 22005AP  24118.15771163  .00018323  00000-0  11654-2 0  9994,2 51141  53.2150 118.6363 0001080  84.9379 275.1736 15.08868845126965,6917.792,95.436,540.404,538.91,0.0
51141.0,STARLINK-3179,PAYLOAD,2024-04-27 10:08:38,15.08861963,0.0001174,53.2151,117.4473,93.9325,266.1801,0.00029892,4.475e-05,0.0,0 STARLINK-3179,1 51141U 22005AP  24118.42266798  .00004475  00000-0  29892-3 0  9994,2 51141  53.2151 117.4473 0001174  93.9325 266.1801 15.08861963127003,6917.813,95.436,540.49,538.866,0.0
51141.0,STARLINK-3179,PAYLOAD,2024-04-27 16:30:11,15.08849356,9.99e-05,53.2139,116.2554,76.6606,283.4498,-3.322e-05,-8.17e-06,0.0,0 STARLINK-3179,1 51141U 22005AP  24118.68762882 -.00000817  00000-0 -33220-4 0  9996,2 51141  53.2139 116.2554 0000999  76.6606 283.4498 15.08849356127040,6917.852,95.437,540.408,539.026,0.0
51141.0,STARLINK-3179,PAYLOAD,2024-04-27 22:51:43,15.0884499,0.0001688,53.2148,115.0681,93.3156,266.8029,-9.2194e-05,-1.755e-05,0.0,0 STARLINK-3179,1 51141U 22005AP  24118.95259094 -.00001755  00000-0 -92194-4 0  9999,2 51141  53.2148 115.0681 0001688  93.3156 266.8029 15.08844990125974,6917.865,95.437,540.898,538.562,0.0
51141.0,STARLINK-3179,PAYLOAD,2024-04-28 09:59:22,15.08896677,7.42e-05,53.2157,112.9879,118.4916,241.6151,0.00036727,5.571e-05,0.0,0 STARLINK-3179,1 51141U 22005AP  24119.41622942  .00005571  00000-0  36727-3 0  9994,2 51141  53.2157 112.9879 0000742 118.4916 241.6151 15.08896677127150,6917.707,95.434,540.085,539.059,0.0
51141.0,STARLINK-3179,PAYLOAD,2024-04-28 16:20:54,15.08891462,7.55e-05,53.2151,111.7981,119.3136,240.7931,0.00037474,5.69e-05,0.0,0 STARLINK-3179,1 51141U 22005AP  24119.68118384  .00005690  00000-0  37474-3 0  9995,2 51141  53.2151 111.7981 0000755 119.3136 240.7931 15.08891462127190,6917.723,95.434,540.11,539.066,0.0
51141.0,STARLINK-3179,PAYLOAD,2024-04-29 05:04:03,15.08829497,0.0001115,53.2155,109.4159,77.6572,282.4545,-0.00013842,-2.489e-05,0.0,0 STARLINK-3179,1 51141U 22005AP  24120.21115254 -.00002489  00000-0 -13842-3 0  9997,2 51141  53.2155 109.4159 0001115  77.6572 282.4545 15.08829497127278,6917.912,95.438,540.549,539.006,0.0
51141.0,STARLINK-3179,PAYLOAD,2024-04-29 09:50:12,15.08829732,0.0001336,53.2173,108.5282,91.0061,269.1084,-0.00011104,-2.054e-05,0.0,0 STARLINK-3179,1 51141U 22005AP  24120.40987248 -.00002054  00000-0 -11104-3 0  9995,2 51141  53.2173 108.5282 0001336  91.0061 269.1084 15.08829732126195,6917.912,95.438,540.701,538.853,0.0
51141.0,STARLINK-3179,PAYLOAD,2024-04-29 22:33:18,15.0881788,0.0001459,53.2182,106.1484,95.978,264.1378,-7.8811e-05,-1.541e-05,0.0,0 STARLINK-3179,1 51141U 22005AP  24120.93980309 -.00001541  00000-0 -78811-4 0  9993,2 51141  53.2182 106.1484 0001459  95.9780 264.1378 15.08817880126271,6917.948,95.439,540.822,538.804,0.0
51141.0,STARLINK-3179,PAYLOAD,2024-04-30 06:30:14,15.08823578,0.0001453,53.2182,104.661,95.0857,265.0301,-7.8052e-05,-1.529e-05,0.0,0 STARLINK-3179,1 51141U 22005AP  24121.27100256 -.00001529  00000-0 -78052-4 0  9999,2 51141  53.2182 104.6610 0001453  95.0857 265.0301 15.08823578127431,6917.931,95.439,540.801,538.79,0.0
51141.0,STARLINK-3179,PAYLOAD,2024-04-30 16:02:33,15.08832136,0.0001445,53.2181,102.8772,95.4649,264.6508,-8.6835e-05,-1.669e-05,0.0,0 STARLINK-3179,1 51141U 22005AP  24121.66843994 -.00001669  00000-0 -86835-4 0  9998,2 51141  53.2181 102.8772 0001445  95.4649 264.6508 15.08832136127493,6917.904,95.438,540.769,538.77,0.0
51141.0,STARLINK-3179,PAYLOAD,2024-04-30 22:24:05,15.08851463,0.0001186,53.2179,101.6874,96.8473,263.2654,-0.00032793,-5.505e-05,0.0,0 STARLINK-3179,1 51141U 22005AP  24121.93339143 -.00005505  00000-0 -32793-3 0  9990,2 51141  53.2179 101.6874 0001186  96.8473 263.2654 15.08851463126425,6917.845,95.437,540.531,538.89,0.0
51141.0,STARLINK-3179,PAYLOAD,2024-05-01 04:45:37,15.08824151,0.0001398,53.2171,100.4982,93.0139,267.1013,0.00015958,2.252e-05,0.0,0 STARLINK-3179,1 51141U 22005AP  24122.19835561  .00002252  00000-0  15958-3 0  9992,2 51141  53.2171 100.4982 0001398  93.0139 267.1013 15.08824151126467,6917.929,95.439,540.761,538.827,0.0
51141.0,STARLINK-3179,PAYLOAD,2024-05-01 15:53:19,15.08830822,0.0001444,53.2177,98.4167,92.5986,267.5171,0.00019651,2.84e-05,0.0,0 STARLINK-3179,1 51141U 22005AP  24122.66203445  .00002840  00000-0  19651-3 0  9991,2 51141  53.2177  98.4167 0001444  92.5986 267.5171 15.08830822127642,6917.908,95.438,540.772,538.774,0.0
51141.0,STARLINK-3179,PAYLOAD,2024-05-01 22:14:52,15.08832731,0.0001412,53.2174,97.2273,92.6355,267.4799,0.00023483,3.451e-05,0.0,0 STARLINK-3179,1 51141U 22005AP  24122.92699435  .00003451  00000-0  23483-3 0  9995,2 51141  53.2174  97.2273 0001412  92.6355 267.4799 15.08832731126577,6917.903,95.438,540.744,538.791,0.0
51141.0,STARLINK-3179,PAYLOAD,2024-05-02 04:36:24,15.08840862,0.0001408,53.2173,96.0376,93.4748,266.6405,0.00022847,3.35e-05,0.0,0 STARLINK-3179,1 51141U 22005AP  24123.19195124  .00003350  00000-0  22847-3 0  9992,2 51141  53.2173  96.0376 0001408  93.4748 266.6405 15.08840862127724,6917.878,95.438,540.717,538.769,0.0
51141.0,STARLINK-3179,PAYLOAD,2024-05-02 15:44:07,15.08837236,0.000137,53.2167,93.9561,92.6669,267.448,0.00014254,1.981e-05,0.0,0 STARLINK-3179,1 51141U 22005AP  24123.65563660  .00001981  00000-0  14254-3 0  9998,2 51141  53.2167  93.9561 0001370  92.6669 267.4480 15.08837236127790,6917.889,95.438,540.702,538.806,0.0
51141.0,STARLINK-3179,PAYLOAD,2024-05-03 07:37:57,15.08848316,0.0001398,53.2174,90.9817,96.3462,263.769,0.00011675,1.571e-05,0.0,0 STARLINK-3179,1 51141U 22005AP  24124.31803042  .00001571  00000-0  11675-3 0  9992,2 51141  53.2174  90.9817 0001398  96.3462 263.7690 15.08848316127895,6917.855,95.437,540.687,538.753,0.0
51141.0,STARLINK-3179,PAYLOAD,2024-05-04 04:17:59,15.08833484,0.0001257,53.2165,87.1167,100.2058,259.9076,-6.6489e-05,-1.346e-05,0.0,0 STARLINK-3179,1 51141U 22005AP  24125.17916550 -.00001346  00000-0 -66489-4 0  9992,2 51141  53.2165  87.1167 0001257 100.2058 259.9076 15.08833484128022,6917.9,95.438,540.635,538.896,0.0
51141.0,STARLINK-3179,PAYLOAD,2024-05-05 04:08:46,15.08848415,0.000123,53.2182,82.6568,100.5332,259.5799,9.8385e-05,1.279e-05,0.0,0 STARLINK-3179,1 51141U 22005AP  24126.17275558  .00001279  00000-0  98385-4 0  9992,2 51141  53.2182  82.6568 0001230 100.5332 259.5799 15.08848415128179,6917.855,95.437,540.571,538.869,0.0
51141.0,STARLINK-3179,PAYLOAD,2024-05-05 21:38:01,15.08837302,0.0001266,53.2184,79.3868,106.8492,253.2639,0.00017626,2.518e-05,0.0,0 STARLINK-3179,1 51141U 22005AP  24126.90140194  .00002518  00000-0  17626-3 0  9995,2 51141  53.2184  79.3868 0001266 106.8492 253.2639 15.08837302128281,6917.889,95.438,540.629,538.878,0.0
51141.0,STARLINK-3179,PAYLOAD,2024-05-06 07:10:19,15.08846308,0.0001134,53.2175,77.6015,103.3311,256.7807,0.00021053,3.065e-05,0.0,0 STARLINK-3179,1 51141U 22005AP  24127.29883600  .00003065  00000-0  21053-3 0  9991,2 51141  53.2175  77.6015 0001134 103.3311 256.7807 15.08846308128340,6917.861,95.437,540.511,538.942,0.0
51141.0,STARLINK-3179,PAYLOAD,2024-05-06 13:31:52,15.08846689,0.0001125,53.2172,76.4119,100.9258,259.1861,0.00019263,2.78e-05,0.0,0 STARLINK-3179,1 51141U 22005AP  24127.56379689  .00002780  00000-0  19263-3 0  9991,2 51141  53.2172  76.4119 0001125 100.9258 259.1861 15.08846689127272,6917.86,95.437,540.503,538.947,0.0
51141.0,STARLINK-3179,PAYLOAD,2024-05-07 13:22:39,15.08842711,0.0001553,53.2189,71.9523,86.6991,273.4179,5.3117e-05,5.58e-06,0.0,0 STARLINK-3179,1 51141U 22005AP  24128.55740093  .00000558  00000-0  53117-4 0  9990,2 51141  53.2189  71.9523 0001553  86.6991 273.4179 15.08842711127428,6917.872,95.437,540.811,538.663,0.0
51141.0,STARLINK-3179,PAYLOAD,2024-05-07 19:44:12,15.08842852,0.0002045,53.2177,70.7627,83.0775,277.0449,1.1993e-05,-9.7e-07,0.0,0 STARLINK-3179,1 51141U 22005AP  24128.82236333 -.00000097  00000-0  11993-4 0  9992,2 51141  53.2177  70.7627 0002045  83.0775 277.0449 15.08842852128578,6917.872,95.437,541.151,538.322,0.0
51141.0,STARLINK-3179,PAYLOAD,2024-05-08 02:05:45,15.08831612,0.0001313,53.2176,69.5732,86.6864,273.4278,-8.7446e-05,-1.679e-05,0.0,0 STARLINK-3179,1 51141U 22005AP  24129.08733158 -.00001679  00000-0 -87446-4 0  9992,2 51141  53.2176  69.5732 0001313  86.6864 273.4278 15.08831612128612,6917.906,95.438,540.679,538.863,0.0
